CAS-2T & KS-1Q          
1 41847U 16066G   20286.86109452  .00000054  00000-0  19262-4 0  9999
2 41847  98.6409 338.4815 0364634 238.9192 117.5737 14.38097521206294
NAYIF-1 (EO-88)         
1 42017U 17008BX  20286.15413293  .00001462  00000-0  58225-4 0  9995
2 42017  97.3488 351.9641 0004474 268.5841  91.4885 15.26826643203358
MAX VALIER SAT          
1 42778U 17036P   20286.70838499  .00000800  00000-0  37099-4 0  9991
2 42778  97.2923 337.0304 0011251 337.3200  22.7538 15.22822599183576
RADFXSAT (FOX-1B)       
1 43017U 17073E   20286.83872899  .00000824  00000-0  68802-4 0  9997
2 43017  97.7150 194.5065 0257406  28.1235 333.3609 14.79058584156517
FOX-1D (AO-92)          
1 43137U 18004AC  20286.66801137  .00000915  00000-0  40286-4 0  9990
2 43137  97.4357 356.9844 0009311  14.3516 345.7984 15.24347320152906
DIWATA-2B               
1 43678U 18084H   20286.86667801 -.00000147  00000-0 -89063-5 0  9994
2 43678  97.8963  45.3537 0010491 142.0538 218.1404 14.91656895106525
ES'HAIL 2               
1 43700U 18090A   20286.85322090  .00000139  00000-0  00000-0 0  9992
2 43700   0.0186 220.2860 0001900   6.7802 127.7816  1.00271550  6889
FOX-1CLIFF (AO-95)      
1 43770U 18099N   20286.83709979 -.00000024  00000-0  30121-5 0  9997
2 43770  97.6958 356.1124 0015057 159.8593 200.3225 14.95062147101451
ITASAT 1                
1 43786U 18099AE  20286.74089340  .00000587  00000-0  58264-4 0  9997
2 43786  97.6973 356.5214 0015986 154.2416 205.9604 14.95388941101469
JY1SAT (JO-97)          
1 43803U 18099AX  20286.13891991  .00000625  00000-0  61385-4 0  9994
2 43803  97.6933 355.7227 0015914 156.3857 203.8098 14.95579260101373
PSAT2 (NO-104)          
1 44354U 19036R   20286.40803050  .00008284  00000-0  11622-3 0  9994
2 44354  28.5295 331.3542 0356241 121.9641 241.6093 15.05626320 71440
BRICSAT2 (NO-103)       
1 44355U 19036S   20286.19108442  .00016945  00000-0  22509-3 0  9993
2 44355  28.5293 316.8424 0327239 145.5242 216.7041 15.12994838 71581
JAISAT-1                
1 44419U 19038F   20286.89050849  .00000917  00000-0  55446-4 0  9999
2 44419  97.5528 247.2063 0023158  86.1057 274.2821 15.12968648 70351
DUCHIFAT-3              
1 44854U 19089C   20286.92167542  .00000318  00000-0  32057-4 0  9999
2 44854  36.9651 124.1010 0009866 292.6603  67.3102 14.99151909 45931
RS-44 & BREEZE-KM R/B   
1 44909U 19096E   20286.71018742  .00000033  00000-0  94366-4 0  9997
2 44909  82.5169 277.3957 0216583 312.5874  45.7130 12.79708537 37182
ORBITAL FACTORY 2 (OF-2)
1 45113U 19071C   20286.91327014  .00001953  00000-0  70195-4 0  9991
2 45113  51.6432 155.9672 0013526 119.5941 240.6391 15.33799278 39156
HUSKYSAT-1              
1 45119U 19071J   20286.87617476  .00001390  00000-0  53006-4 0  9993
2 45119  51.6430 155.7194 0012801 116.2496 243.9803 15.33980913 39142
